GLOBALSTAR M023         
1 25621U 99004A   25034.58035863 -.00000117  00000+0 -74984-4 0  9996
2 25621  52.0110 100.2773 0010180 190.2143 321.8905 12.62494045198853
GLOBALSTAR M040         
1 25622U 99004B   25034.49252010 -.00000029  00000+0  42065-3 0  9997
2 25622  51.9919 104.4998 0001430 112.8220 349.8962 12.62000211198376
GLOBALSTAR M036         
1 25623U 99004C   25034.52071602 -.00000070  00000+0  18110-3 0  9998
2 25623  51.9934 232.6367 0011441 152.2314 245.0938 11.86591755163110
GLOBALSTAR M038         
1 25624U 99004D   25034.45936319 -.00000055  00000+0  33001-3 0  9995
2 25624  51.9973  96.6913 0002461 134.6663 330.6347 12.32519843185885
GLOBALSTAR M022         
1 25649U 99012A   25034.18091655 -.00000085  00000+0  19442-4 0  9993
2 25649  52.0051 295.1947 0001682 274.2793 219.6610 12.02495175160254
GLOBALSTAR M041         
1 25650U 99012B   25034.57470097 -.00000061  00000+0  31384-3 0  9991
2 25650  51.9998 171.4990 0002715  74.5916 285.5220 11.96670930162284
GLOBALSTAR M046         
1 25651U 99012C   25034.87937611 -.00000148  00000+0 -65467-3 0  9991
2 25651  52.0026 248.2950 0002380  13.7004  91.6254 12.09405067167885
GLOBALSTAR M037         
1 25652U 99012D   25034.85903509 -.00000053  00000+0  28159-3 0  9990
2 25652  51.9976 230.0967 0000912 235.3022 229.2218 12.62435536194484
